{
    "links": {
        "self": "http://www.neowsapp.com/rest/v1/neo/3789223?api_key=iIulBulltgU6a56xZRHN4H3l9WmuAYTsLGpBGhQ2"
    },
    "id": "3789223",
    "neo_reference_id": "3789223",
    "name": "(2017 VU12)",
    "designation": "2017 VU12",
    "nasa_jpl_url": "http://ssd.jpl.nasa.gov/sbdb.cgi?sstr=3789223",
    "absolute_magnitude_h": 27.1,
    "estimated_diameter": {
        "kilometers": {
            "estimated_diameter_min": 0.0101054342,
            "estimated_diameter_max": 0.0225964377
        },
        "meters": {
            "estimated_diameter_min": 10.1054341542,
            "estimated_diameter_max": 22.5964377109
        },
        "miles": {
            "estimated_diameter_min": 0.0062792237,
            "estimated_diameter_max": 0.0140407711
        },
        "feet": {
            "estimated_diameter_min": 33.1543125905,
            "estimated_diameter_max": 74.1352966996
        }
    },
    "is_potentially_hazardous_asteroid": false,
    "close_approach_data": [
        {
            "close_approach_date": "2017-11-08",
            "close_approach_date_full": "2017-Nov-08 08:56",
            "epoch_date_close_approach": 1510131360000,
            "relative_velocity": {
                "kilometers_per_second": "10.8222907416",
                "kilometers_per_hour": "38960.2466698475",
                "miles_per_hour": "24208.3821599394"
            },
            "miss_distance": {
                "astronomical": "0.0188716269",
                "lunar": "7.3410628641",
                "kilometers": "2823155.187674703",
                "miles": "1754227.2890207814"
            },
            "orbiting_body": "Earth"
        },
        {
            "close_approach_date": "2063-07-21",
            "close_approach_date_full": "2063-Jul-21 04:26",
            "epoch_date_close_approach": 2952217560000,
            "relative_velocity": {
                "kilometers_per_second": "11.7757288948",
                "kilometers_per_hour": "42392.6240213898",
                "miles_per_hour": "26341.1279648463"
            },
            "miss_distance": {
                "astronomical": "0.0518805826",
                "lunar": "20.1815466314",
                "kilometers": "7761224.651319062",
                "miles": "4822601.3713325756"
            },
            "orbiting_body": "Mars"
        },
        {
            "close_approach_date": "2063-11-30",
            "close_approach_date_full": "2063-Nov-30 18:40",
            "epoch_date_close_approach": 2963673600000,
            "relative_velocity": {
                "kilometers_per_second": "19.146998968",
                "kilometers_per_hour": "68929.196284926",
                "miles_per_hour": "42829.9219915975"
            },
            "miss_distance": {
                "astronomical": "0.2875054177",
                "lunar": "111.8396074853",
                "kilometers": "43010198.101380299",
                "miles": "26725297.8316701662"
            },
            "orbiting_body": "Earth"
        }
    ],
    "orbital_data": {
        "orbit_id": "5",
        "orbit_determination_date": "2017-11-22 06:26:52",
        "first_observation_date": "2017-11-13",
        "last_observation_date": "2017-11-21",
        "data_arc_in_days": 8,
        "observations_used": 38,
        "orbit_uncertainty": "8",
        "minimum_orbit_intersection": ".00448556",
        "jupiter_tisserand_invariant": "3.716",
        "epoch_osculation": "2458072.5",
        "eccentricity": ".5273790543840806",
        "semi_major_axis": "1.94289314188001",
        "inclination": ".7672441747543707",
        "ascending_node_longitude": "242.6023884998249",
        "orbital_period": "989.1719664980822",
        "perihelion_distance": ".9182519939460149",
        "perihelion_argument": "122.2024033996688",
        "aphelion_distance": "2.967534289814004",
        "perihelion_time": "2458035.127488116392",
        "mean_anomaly": "13.60138048162626",
        "mean_motion": ".3639407627720088",
        "equinox": "J2000",
        "orbit_class": {
            "orbit_class_type": "APO",
            "orbit_class_description": "Near-Earth asteroid orbits which cross the Earth’s orbit similar to that of 1862 Apollo",
            "orbit_class_range": "a (semi-major axis) > 1.0 AU; q (perihelion) < 1.017 AU"
        }
    },
    "is_sentry_object": false
}